# FY3D (LEO)
1 43010U 17072A   25259.62673388  .00000078  00000+0  58711-4 0  9991
2 43010  98.9732 224.6946 0002509  99.2803 260.8656 14.19642252406175

# FY3E (LEO)
1 49008U 21062A   25259.64563071  .00000010  00000+0  25316-4 0  9998
2 49008  98.7476 261.1891 0002297 128.6871 231.4511 14.19861925217761

# FY3F (LEO)
1 57490U 23111A   25259.63299075  .00000036  00000+0  37762-4 0  9994
2 57490  98.7188 329.2873 0001370 111.1772 248.9551 14.19859526110043

# FY3G (LEO)
1 56232U 23055A   25259.60889935  .00030011  00000+0  45189-3 0  9998
2 56232  49.9956 316.6971 0016337 106.9952 253.2808 15.54360745137488

# C2E1 (LEO)
1 44349U 19036L   25259.50728094  .00003406  00000+0  25944-3 0  9990
2 44349  23.9976  79.1199 0001214  25.4123 334.6437 14.97520793343594

# C2E2 (LEO)
1 44351U 19036N   25259.48468478  .00003506  00000+0  26784-3 0  9991
2 44351  23.9975 195.6757 0001036  12.5868 347.4659 14.97518979342528

# C2E3 (LEO)
1 44343U 19036E   25259.38458408  .00005342  00000+0  33011-3 0  9994
2 44343  23.9986 258.8763 0000605 241.8492 118.1950 15.06522175341857

# C2E4 (LEO)
1 44350U 19036M   25258.99540869  .00003470  00000+0  26489-3 0  9992
2 44350  23.9979 144.6559 0001171   3.6487 356.4022 14.97506822342936

# C2E5 (LEO)
1 44358U 19036V   25259.47474690  .00003664  00000+0  27832-3 0  9990
2 44358  23.9998 315.5084 0000996 201.4285 158.6175 14.97880276341281

# C2E6 (LEO)
1 44353U 19036Q   25259.41804948  .00003762  00000+0  28924-3 0  9994
2 44353  23.9990  16.9490 0001634  40.7117 319.3507 14.97513741340744

# G01 (GNSS)
1 62339U 24242A   25259.61481626 -.00000108  00000+0  00000+0 0  9992
2 62339  54.9490 345.2706 0007919 342.1257   8.9740  2.00565830  5768

# G02 (GNSS)
1 28474U 04045A   25259.55475207 -.00000097  00000+0  00000+0 0  9991
2 28474  55.2809 335.9140 0167695 306.0644  33.1932  2.00565430152934

# G03 (GNSS)
1 40294U 14068A   25259.20638746 -.00000050  00000+0  00000+0 0  9991
2 40294  56.7954  41.5293 0061807  69.6920 290.9779  2.00559377 79710

# G04 (GNSS)
1 43873U 18109A   25258.80411575  .00000012  00000+0  00000+0 0  9998
2 43873  55.5132 103.0184 0035146 194.5043 175.9271  2.00573916 49570

# G05 (GNSS)
1 35752U 09043A   25259.41283446 -.00000060  00000+0  00000+0 0  9998
2 35752  56.0331  38.2244 0054700  81.7120 288.1961  2.00570642117875

# G06 (GNSS)
1 39741U 14026A   25259.24210158 -.00000103  00000+0  00000+0 0  9996
2 39741  56.6150 342.1807 0035967 317.0566  42.7055  2.00567465 83045

# G07 (GNSS)
1 32711U 08012A   25258.92428602 -.00000037  00000+0  00000+0 0  9999
2 32711  54.4664 160.8792 0200597 244.2227 113.7344  2.00561565128255

# G08 (GNSS)
1 40730U 15033A   25258.50411771  .00000017  00000+0  00000+0 0  9990
2 40730  54.2038 278.4014 0105821  25.3429 335.2164  2.00569994 74487

# G09 (GNSS)
1 40105U 14045A   25258.83431754  .00000012  00000+0  00000+0 0  9992
2 40105  55.1713  99.4055 0032797 117.0351 243.3726  2.00567104 80574

# G10 (GNSS)
1 41019U 15062A   25258.06355498 -.00000047  00000+0  00000+0 0  9991
2 41019  56.7701  41.4296 0106929 228.0337 131.0602  2.00566921 72318

# G11 (GNSS)
1 48859U 21054A   25259.30171979 -.00000105  00000+0  00000+0 0  9991
2 48859  55.2862 343.4658 0023321 228.2745 140.4750  2.00557957 31261

# G12 (GNSS)
1 29601U 06052A   25259.19941401  .00000015  00000+0  00000+0 0  9997
2 29601  54.9952 224.8688 0085119  86.9526 274.0003  2.00568221137915

# G13 (GNSS)
1 24876U 97035A   25258.98252528  .00000011  00000+0  00000+0 0  9994
2 24876  55.8486 109.3014 0095275  56.2607 304.7247  2.00562876206457

# G14 (GNSS)
1 46826U 20078A   25259.28929001  .00000007  00000+0  00000+0 0  9992
2 46826  54.0398 221.8877 0062730 203.5982 326.6587  2.00567036 36015

# G15 (GNSS)
1 32260U 07047A   25259.50384417  .00000013  00000+0  00000+0 0  9998
2 32260  53.8909  91.3609 0164466  83.6780 278.2609  2.00568025131328

# G16 (GNSS)
1 27663U 03005A   25259.38821116  .00000013  00000+0  00000+0 0  9997
2 27663  54.9500 225.8489 0143457  50.6801 307.2684  2.00575626165815

# G17 (GNSS)
1 28874U 05038A   25259.13284591  .00000008  00000+0  00000+0 0  9997
2 28874  55.1056 284.2271 0133734 291.3458  66.1727  2.00553965146333

# G18 (GNSS)
1 44506U 19056A   25252.50597588 -.00000076  00000+0  00000+0 0  9995
2 44506  55.7550 342.2954 0056504 195.5871 203.1478  2.00563354 44442

# G19 (GNSS)
1 28190U 04009A   25257.66799194  .00000004  00000+0  00000+0 0  9997
2 28190  55.0612 286.8078 0107535 165.4404 192.7339  2.00564124157411

# G20 (GNSS)
1 26360U 00025A   25259.36703062 -.00000077  00000+0  00000+0 0  9997
2 26360  54.9960  30.3702 0036991 234.6377 133.5032  2.00574415185781

# G21 (GNSS)
1 64202U 25116A   25257.12389619 -.00000048  00000+0  00000+0 0  9990
2 64202  55.0418  42.2585 0002025 300.3572 243.4027  2.00564202  2335

# G22 (GNSS)
1 26407U 00040A   25258.80926133  .00000022  00000+0  00000+0 0  9999
2 26407  54.9171 226.0616 0130699 299.9561 225.9213  2.00566803184445

# G23 (GNSS)
1 45854U 20041A   25259.00808925 -.00000054  00000+0  00000+0 0  9996
2 45854  56.4882  39.6006 0057571 200.0692 158.3697  2.00563859 38535

# G24 (GNSS)
1 38833U 12053A   25259.10227652 -.00000035  00000+0  00000+0 0  9991
2 38833  53.5438 154.8286 0171686  62.3310 299.4491  2.00564114 93949

# G25 (GNSS)
1 36585U 10022A   25258.50662029  .00000018  00000+0  00000+0 0  9991
2 36585  54.3218 219.6286 0122563  64.2614 132.8666  2.00574542112081

# G26 (GNSS)
1 40534U 15013A   25258.84049545  .00000005  00000+0  00000+0 0  9990
2 40534  53.2192 215.5268 0102365  36.2306 324.4342  2.00567641 76327

# G27 (GNSS)
1 39166U 13023A   25258.96604745  .00000015  00000+0  00000+0 0  9991
2 39166  54.7243 280.1344 0133460  48.1429 313.0358  2.00565451 90380

# G28 (GNSS)
1 55268U 23009A   25255.75588914  .00000003  00000+0  00000+0 0  9997
2 55268  55.0960 159.4194 0003743 346.1561  23.2907  2.00562749 19681

# G29 (GNSS)
1 32384U 07062A   25259.33114331  .00000007  00000+0  00000+0 0  9992
2 32384  55.2543 285.1508 0032588 163.4059 200.6593  2.00572995130029

# G30 (GNSS)
1 39533U 14008A   25258.96350097 -.00000037  00000+0  00000+0 0  9996
2 39533  53.6195 160.5049 0078389 226.2867 133.1013  2.00569189 84180

# G31 (GNSS)
1 29486U 06042A   25255.79825051  .00000003  00000+0  00000+0 0  9998
2 29486  54.6858 162.3498 0106132  49.1341 323.0206  2.00557617138837

# G32 (GNSS)
1 41328U 16007A   25259.14235960  .00000015  00000+0  00000+0 0  9999
2 41328  55.3514 100.3332 0088619 242.5224 116.6464  2.00565274 70341

# C06 (GNSS)
1 36828U 10036A   25259.65996904 -.00000161  00000+0  00000+0 0  9995
2 36828  54.2778 165.4400 0048536 216.8060 315.5634  1.00250535 55357

# C04 (GNSS)
1 37210U 10057A   25259.61545214 -.00000130  00000+0  00000+0 0  9990
2 37210   2.9636  70.2064 0008460 171.0116 136.2152  1.00271246 54546

# C07 (GNSS)
1 37256U 10068A   25258.98238906 -.00000167  00000+0  00000+0 0  9998
2 37256  48.0423 275.2268 0048568 216.4128 324.0019  1.00259559 54041

# C14 (GNSS)
1 38775U 12050B   25258.44656059  .00000002  00000+0  00000+0 0  9999
2 38775  56.3011  71.9947 0011137 357.6465   2.3867  1.86230904 88199

# C01 (GNSS)
1 44231U 19027A   25259.54934022 -.00000266  00000+0  00000+0 0  9998
2 44231   1.4368  74.3432 0006697 260.4890   3.2157  1.00270488 23337

# C24 (GNSS)
1 43582U 18062B   25258.58617282 -.00000022  00000+0  00000+0 0  9993
2 43582  54.0946 191.6303 0005866  21.3081 338.7059  1.86229666 48525

# C26 (GNSS)
1 43602U 18067A   25259.59690819 -.00000038  00000+0  00000+0 0  9997
2 43602  54.1884 190.3191 0008144  30.3756 329.6589  1.86227549 48022

# C25 (GNSS)
1 43603U 18067B   25258.65727728 -.00000024  00000+0  00000+0 0  9999
2 43603  54.1857 190.3152 0004770  18.3829 341.6253  1.86227093 48035

# C32 (GNSS)
1 43622U 18072A   25255.93007659 -.00000005  00000+0  00000+0 0  9997
2 43622  56.3789  71.8250 0004063 321.7396  38.2673  1.86231108 47497

# C33 (GNSS)
1 43623U 18072B   25259.55423356  .00000006  00000+0  00000+0 0  9996
2 43623  56.3843  71.6989 0003479  18.3878 341.6640  1.86231131 47558

# C35 (GNSS)
1 43647U 18078A   25258.63929236 -.00000051  00000+0  00000+0 0  9995
2 43647  54.3386 309.6015 0005805  21.6897 338.3986  1.86232217 47047

# C34 (GNSS)
1 43648U 18078B   25258.23153156 -.00000051  00000+0  00000+0 0  9992
2 43648  54.3347 309.6170 0002406  29.7543 330.3227  1.86232222 47055

# C59 (GNSS)
1 43683U 18085A   25259.54767966 -.00000296  00000+0  00000+0 0  9995
2 43683   2.8865 105.2372 0003574  10.2377 217.4974  1.00272742 25314

# C36 (GNSS)
1 43706U 18093A   25257.31768370  .00000002  00000+0  00000+0 0  9997
2 43706  54.1786 191.6561 0008970 294.1062  67.9365  1.86228107 46405

# C37 (GNSS)
1 43707U 18093B   25258.78697882 -.00000025  00000+0  00000+0 0  9995
2 43707  54.1791 191.5981 0007534 326.1981  33.7427  1.86229838 46422

# C38 (GNSS)
1 44204U 19023A   25258.87067347 -.00000205  00000+0  00000+0 0  9999
2 44204  58.3125  40.4831 0025207 216.2369 170.7060  1.00270294  4465

# C39 (GNSS)
1 44337U 19035A   25247.72162405 -.00000168  00000+0  00000+0 0  9990
2 44337  55.2150 161.3741 0035069 208.7975 349.2962  1.00246132 22801

# C46 (GNSS)
1 44542U 19061A   25257.78444815 -.00000006  00000+0  00000+0 0  9993
2 44542  54.4063 192.0170 0008775   3.5286 356.4699  1.86229275 40664

# C45 (GNSS)
1 44543U 19061B   25258.16284954 -.00000013  00000+0  00000+0 0  9991
2 44543  54.4048 191.9725 0005716 349.7019 176.7894  1.86229379 40679

# C40 (GNSS)
1 44709U 19073A   25259.46967554 -.00000151  00000+0  00000+0 0  9999
2 44709  55.2707 283.8568 0045579 191.7502 168.2073  1.00270521 21713

# C44 (GNSS)
1 44793U 19078A   25258.16267612 -.00000052  00000+0  00000+0 0  9991
2 44793  54.1853 309.4943 0004482  29.8556 330.2330  1.86232065 39526

# C43 (GNSS)
1 44794U 19078B   25258.29830132 -.00000051  00000+0  00000+0 0  9998
2 44794  54.1589 309.4562 0002724  22.8239 337.2513  1.86227689 39535
